NORAD_CAT_ID,OBJECT_NAME,OBJECT_TYPE,EPOCH,MEAN_MOTION,ECCENTRICITY,INCLINATION,RA_OF_ASC_NODE,ARG_OF_PERICENTER,MEAN_ANOMALY,BSTAR,MEAN_MOTION_DOT,MEAN_MOTION_DDOT,TLE_LINE0,TLE_LINE1,TLE_LINE2,SEMIMAJOR_AXIS,PERIOD,APOGEE,PERIGEE,DECAYED
53840.0,STARLINK-4766,PAYLOAD,2022-10-04 16:00:00,15.73186434,0.0001169,53.2148,181.4575,105.2688,197.2719,-7.3602e-05,-0.00010929,0.0,0 STARLINK-4766,1 53840U 22114Y   22277.66667824 -.00010929  00000-0 -73602-4 0  9990,2 53840  53.2148 181.4575 0001169 105.2688 197.2719 15.73186434  3037,6727.934,91.534,350.585,349.01199999999994,0.0
53840.0,STARLINK-4766,PAYLOAD,2022-10-04 22:00:00,15.73135707,0.0001278,53.215,180.2213,97.12,182.0543,0.00015255,0.00020784,0.0,0 STARLINK-4766,1 53840U 22114Y   22277.91667824  .00020784  00000-0  15255-3 0  9995,2 53840  53.2150 180.2213 0001278  97.1200 182.0543 15.73135707  3074,6728.078,91.537,350.80300000000005,349.084,0.0
53840.0,STARLINK-4766,PAYLOAD,2022-10-05 14:00:01,15.73095666,0.0001224,53.2147,176.9213,108.539,348.4821,0.0011453,0.00162533,0.0,0 STARLINK-4766,1 53840U 22114Y   22278.58335648  .00162533  00000-0  11453-2 0  9999,2 53840  53.2147 176.9213 0001224 108.5390 348.4821 15.73095666  1300,6728.193,91.539,350.881,349.2340000000001,0.0
53840.0,STARLINK-4766,PAYLOAD,2022-10-05 22:00:00,15.73201387,0.0001247,53.2149,175.2733,103.6945,82.1354,-3.5488e-05,-5.597e-05,0.0,0 STARLINK-4766,1 53840U 22114Y   22278.91667824 -.00005597  00000-0 -35488-4 0  9994,2 53840  53.2149 175.2733 0001247 103.6945  82.1354 15.73201387  1300,6727.891,91.533,350.595,348.917,0.0
53840.0,STARLINK-4766,PAYLOAD,2022-10-06 06:00:00,15.73194875,0.0001075,53.2148,173.6243,99.8468,174.9026,0.00032716,0.00045533,0.0,0 STARLINK-4766,1 53840U 22114Y   22279.25001157  .00045533  00000-0  32716-3 0  9995,2 53840  53.2148 173.6243 0001075  99.8468 174.9026 15.73194875  3280,6727.91,91.533,350.49800000000016,349.052,0.0
53840.0,STARLINK-4766,PAYLOAD,2022-10-06 14:00:01,15.732133,0.0001142,53.2152,171.9728,114.2135,249.4826,0.00039,0.00054501,0.0,0 STARLINK-4766,1 53840U 22114Y   22279.58334491  .00054501  00000-0  39000-3 0  9999,2 53840  53.2152 171.9728 0001142 114.2135 249.4826 15.73213300  1304,6727.857,91.532,350.491,348.954,0.0
53840.0,STARLINK-4766,PAYLOAD,2022-10-06 22:42:55,15.73202395,0.0001489,53.2175,170.1826,96.3613,165.0674,2.4859e-05,2.87e-05,0.0,0 STARLINK-4766,1 53840U 22114Y   22279.94646991  .00002870  00000-0  24859-4 0  9999,2 53840  53.2175 170.1826 0001489  96.3613 165.0674 15.73202395  1300,6727.888000000001,91.533,350.755,348.75199999999984,0.0
53840.0,STARLINK-4766,PAYLOAD,2022-10-07 00:00:00,15.73204071,0.0001505,53.2175,169.9178,96.7711,108.0669,2.3257e-06,-2.94e-06,0.0,0 STARLINK-4766,1 53840U 22114Y   22280.00001157 -.00000294  00000-0  23257-5 0  9998,2 53840  53.2175 169.9178 0001505  96.7711 108.0669 15.73204071  3405,6727.884,91.533,350.761,348.736,0.0
53840.0,STARLINK-4766,PAYLOAD,2022-10-07 14:00:01,15.73202593,0.0001468,53.2173,167.02900000000002,101.4115,169.0634,2.071e-05,2.287e-05,0.0,0 STARLINK-4766,1 53840U 22114Y   22280.58334491  .00002287  00000-0  20710-4 0  9994,2 53840  53.2173 167.0290 0001468 101.4115 169.0634 15.73202593  1300,6727.888000000001,91.533,350.74,348.765,0.0
53840.0,STARLINK-4766,PAYLOAD,2022-10-07 22:00:00,15.73242838,0.0001094,53.2151,165.3764,112.0089,247.5243,-0.00065358,-0.00091519,0.0,0 STARLINK-4766,1 53840U 22114Y   22280.91667824 -.00091519  00000-0 -65358-3 0  9994,2 53840  53.2151 165.3764 0001094 112.0089 247.5243 15.73242838  3548,6727.773,91.531,350.374,348.902,0.0
53840.0,STARLINK-4766,PAYLOAD,2022-10-08 14:00:01,15.73162322,0.0001173,53.2151,162.0758,119.6498,57.6849,2.1149e-05,2.345e-05,0.0,0 STARLINK-4766,1 53840U 22114Y   22281.58334491  .00002345  00000-0  21149-4 0  9997,2 53840  53.2151 162.0758 0001173 119.6498  57.6849 15.73162322  1303,6728.003000000002,91.535,350.657,349.07800000000015,0.0
53840.0,STARLINK-4766,PAYLOAD,2022-10-08 22:00:00,15.73177894,0.0001388,53.2151,160.4278,111.821,154.5393,6.7638e-05,8.874e-05,0.0,0 STARLINK-4766,1 53840U 22114Y   22281.91667824  .00008874  00000-0  67638-4 0  9999,2 53840  53.2151 160.4278 0001388 111.8210 154.5393 15.73177894  3703,6727.958000000001,91.534,350.75699999999995,348.889,0.0
53840.0,STARLINK-4766,PAYLOAD,2022-10-09 14:00:01,15.73217668,0.0001295,53.2146,157.1271,125.5587,318.6129,0.00029727,0.00041337,0.0,0 STARLINK-4766,1 53840U 22114Y   22282.58334491  .00041337  00000-0  29727-3 0  9991,2 53840  53.2146 157.1271 0001295 125.5587 318.6129 15.73217668  1307,6727.845,91.532,350.581,348.839,0.0
53840.0,STARLINK-4766,PAYLOAD,2022-10-09 22:00:00,15.73244783,0.0001088999999999,53.2146,155.4798,119.8342,53.3109,-0.00074472,-0.00104049,0.0,0 STARLINK-4766,1 53840U 22114Y   22282.91667824 -.00104049  00000-0 -74472-3 0  9996,2 53840  53.2146 155.4798 0001089 119.8342  53.3109 15.73244783  1307,6727.767,91.531,350.365,348.9,0.0
53840.0,STARLINK-4766,PAYLOAD,2022-10-10 08:00:01,15.73263317,0.0001118,53.2159,153.4193,117.4433,256.8544,-0.0020301,-0.00277091,0.0,0 STARLINK-4766,1 53840U 22114Y   22283.33334491 -.00277091  00000-0 -20301-2 0  9993,2 53840  53.2159 153.4193 0001118 117.4433 256.8544 15.73263317  3923,6727.715,91.529,350.332,348.82800000000015,0.0
53840.0,STARLINK-4766,PAYLOAD,2022-10-10 14:00:01,15.73198585,0.0001357,53.2147,152.1782,127.1255,223.9066,0.00027115,0.00037602,0.0,0 STARLINK-4766,1 53840U 22114Y   22283.58334491  .00037602  00000-0  27115-3 0  9991,2 53840  53.2147 152.1782 0001357 127.1255 223.9066 15.73198585  3967,6727.899,91.533,350.677,348.851,0.0
53840.0,STARLINK-4766,PAYLOAD,2022-10-10 22:00:01,15.7334723,0.0001313,53.2161,150.533,121.9188,318.1039,-0.0035891,-0.00479667,0.0,0 STARLINK-4766,1 53840U 22114Y   22283.91668981 -.00479667  00000-0 -35891-2 0  9994,2 53840  53.2161 150.5330 0001313 121.9188 318.1039 15.73347230  4021,6727.475,91.525,350.224,348.457,0.0
53840.0,STARLINK-4766,PAYLOAD,2022-10-11 06:00:00,15.73224788,0.000118,53.2149,148.8813,115.7291,53.0676,-0.00083615,-0.00116479,0.0,0 STARLINK-4766,1 53840U 22114Y   22284.25001157 -.00116479  00000-0 -83615-3 0  9995,2 53840  53.2149 148.8813 0001180 115.7291  53.0676 15.73224788  4070,6727.825,91.532,350.483,348.896,0.0
53840.0,STARLINK-4766,PAYLOAD,2022-10-11 14:00:01,15.73077502,0.0001530999999999,53.2168,147.2334,115.1562,142.5933,0.0014249,0.00203198,0.0,0 STARLINK-4766,1 53840U 22114Y   22284.58334491  .00203198  00000-0  14249-2 0  9990,2 53840  53.2168 147.2334 0001531 115.1562 142.5933 15.73077502  4123,6728.244000000002,91.54,351.14,349.079,0.0
53840.0,STARLINK-4766,PAYLOAD,2022-10-11 22:00:00,15.73187666,0.0001304,53.2155,145.5823,116.5803,229.974,-0.00024644,-0.00035044,0.0,0 STARLINK-4766,1 53840U 22114Y   22284.91667824 -.00035044  00000-0 -24644-3 0  9992,2 53840  53.2155 145.5823 0001304 116.5803 229.9740 15.73187666  1300,6727.93,91.534,350.673,348.918,0.0
53840.0,STARLINK-4766,PAYLOAD,2022-10-12 06:00:00,15.73188029,0.0001147,53.2161,143.9347,115.825,319.6711,0.00074054,0.00104558,0.0,0 STARLINK-4766,1 53840U 22114Y   22285.25001157  .00104558  00000-0  74054-3 0  9996,2 53840  53.2161 143.9347 0001147 115.8250 319.6711 15.73188029  4237,6727.929,91.534,350.566,349.023,0.0
53840.0,STARLINK-4766,PAYLOAD,2022-10-12 14:00:01,15.73269861,0.0001373,53.2169,142.2847,115.233,49.2211,-0.00071237,-0.00099717,0.0,0 STARLINK-4766,1 53840U 22114Y   22285.58334491 -.00099717  00000-0 -71237-3 0  9994,2 53840  53.2169 142.2847 0001373 115.2330  49.2211 15.73269861  4286,6727.696,91.529,350.485,348.63699999999994,0.0
53840.0,STARLINK-4766,PAYLOAD,2022-10-12 22:00:00,15.73204212,0.0001450999999999,53.2175,140.6382,107.908,145.5134,-8.889299999999998e-07,-7.45e-06,0.0,0 STARLINK-4766,1 53840U 22114Y   22285.91667824 -.00000745  00000-0 -88893-6 0  9992,2 53840  53.2175 140.6382 0001451 107.9080 145.5134 15.73204212  1309,6727.8830000000025,91.533,350.724,348.772,0.0
53840.0,STARLINK-4766,PAYLOAD,2022-10-13 06:00:00,15.73204729,0.0001423,53.2174,138.9876,109.1183,233.2378,-6.6368e-06,-1.552e-05,0.0,0 STARLINK-4766,1 53840U 22114Y   22286.25001157 -.00001552  00000-0 -66368-5 0  9990,2 53840  53.2174 138.9876 0001423 109.1183 233.2378 15.73204729  4382,6727.882,91.533,350.704,348.789,0.0
53840.0,STARLINK-4766,PAYLOAD,2022-10-13 14:00:01,15.73471681,0.0001459,53.2169,137.336,113.5337,317.6053,-0.0027493,-0.00374155,0.0,0 STARLINK-4766,1 53840U 22114Y   22286.58334491 -.00374155  00000-0 -27493-2 0  9991,2 53840  53.2169 137.3360 0001459 113.5337 317.6053 15.73471681  1305,6727.121,91.517,349.967,348.004,0.0
53840.0,STARLINK-4766,PAYLOAD,2022-10-13 22:00:00,15.73244047,0.0001137999999999,53.2174,135.689,113.387,46.819,-0.00046339,-0.00065272,0.0,0 STARLINK-4766,1 53840U 22114Y   22286.91667824 -.00065272  00000-0 -46339-3 0  9995,2 53840  53.2174 135.6890 0001138 113.3870  46.8190 15.73244047  1301,6727.77,91.531,350.4,348.869,0.0
53840.0,STARLINK-4766,PAYLOAD,2022-10-14 08:00:01,15.73293488,9.33e-05,53.2166,133.6245,123.1551,238.2974,-0.0013732999999999,-0.00189817,0.0,0 STARLINK-4766,1 53840U 22114Y   22287.33335648 -.00189817  00000-0 -13733-2 0  9991,2 53840  53.2166 133.6245 0000933 123.1551 238.2974 15.73293488  4551,6727.629,91.528,350.121,348.866,0.0
53840.0,STARLINK-4766,PAYLOAD,2022-10-14 14:00:01,15.73138292,0.0001262999999999,53.2169,132.3874,115.2231,222.9044,0.00074521,0.00105002,0.0,0 STARLINK-4766,1 53840U 22114Y   22287.58334491  .00105002  00000-0  74521-3 0  9998,2 53840  53.2169 132.3874 0001263 115.2231 222.9044 15.73138292  1301,6728.071,91.537,350.786,349.086,0.0
53840.0,STARLINK-4766,PAYLOAD,2022-10-14 16:00:00,15.73197281,0.0001324,53.2172,131.976,114.011,336.3193,8.618100000000001e-05,0.0001149,0.0,0 STARLINK-4766,1 53840U 22114Y   22287.66667824  .00011490  00000-0  86181-4 0  9999,2 53840  53.2172 131.9760 0001324 114.0110 336.3193 15.73197281  4610,6727.903,91.533,350.659,348.87699999999984,0.0
